[{"OBJECT_NAME":"STARLINK-5941","OBJECT_ID":"2023-042AD","EPOCH":"2026-03-09T22:34:18.647904","MEAN_MOTION":15.02530088,"ECCENTRICITY":0.0001155,"INCLINATION":43.0041,"RA_OF_ASC_NODE":54.2631,"ARG_OF_PERICENTER":266.8319,"MEAN_ANOMALY":93.2391,"EPHEMERIS_TYPE":0,"CLASSIFICATION_TYPE":"U","NORAD_CAT_ID":56013,"ELEMENT_SET_NO":999,"REV_AT_EPOCH":16295,"BSTAR":6.0580665e-5,"MEAN_MOTION_DOT":6.15e-6,"MEAN_MOTION_DDOT":0},{"OBJECT_NAME":"USA 40 R\/B DEB","OBJECT_ID":"1989-061AF","EPOCH":"2026-03-07T22:36:28.042272","MEAN_MOTION":10.55163008,"ECCENTRICITY":0.21609917,"INCLINATION":56.8984,"RA_OF_ASC_NODE":304.4657,"ARG_OF_PERICENTER":296.6933,"MEAN_ANOMALY":42.8931,"EPHEMERIS_TYPE":0,"CLASSIFICATION_TYPE":"U","NORAD_CAT_ID":23359,"ELEMENT_SET_NO":999,"REV_AT_EPOCH":25893,"BSTAR":0.0085604354,"MEAN_MOTION_DOT":0.00017271,"MEAN_MOTION_DDOT":0}]
